UNKNOWN                 
1 81052U          24151.27488532  .00004298  00000+0  12566-2 0  9992
2 81052  65.7778 355.6735 0609459 221.7468 133.5552 13.71506333522965
UNKNOWN                 
1 81069U          24156.08143834  .00004598  00000+0  67401-2 0  9998
2 81069 100.3240  21.7975 0067856 328.9603  30.7530 13.54128361440392
UNKNOWN                 
1 81078U          24156.18181035  .00000095  00000+0  40833-2 0  9992
2 81078  65.1139  59.7335 0171734 129.6488  23.5182 11.22050989432168
UNKNOWN                 
1 81111U          24156.31764502  .00044528  00000+0  75871-2 0  9990
2 81111  62.8567 167.7830 4052451 335.5995   9.6430  7.23916684230676
UNKNOWN                 
1 81123U 70025    24153.83433335  .00001423  00000+0  14273-2 0  9994
2 81123 100.0088 198.0183 0004828  90.6001 269.5702 13.79603324529153
UNKNOWN                 
1 81134U          24150.30076649  .00000253  00000+0  90408-3 0  9997
2 81134  90.2502 351.2297 0027939  64.2994 296.1004 12.92684878389939
UNKNOWN                 
1 81161U          24138.63509711  .00002444  00000+0  26437-2 0  9994
2 81161 100.4075 282.9674 0060643 296.5842  62.9097 13.73524623477253
UNKNOWN                 
1 81219U 81053    24154.46696422  .00000759  00000+0  70535-3 0  9996
2 81219  82.9276  65.1540 0022250 351.9080   8.1717 13.80827759530445
UNKNOWN                 
1 81228U          24153.52814600  .00006211  00000+0  23945-2 0  9996
2 81228  70.5360  80.9141 0080960 119.2077 241.7179 14.28832165545833
UNKNOWN                 
1 81254U 70025    24148.41900541  .00003622  00000+0  25689-2 0  9991
2 81254 100.3899 129.1320 0074829 115.5055 245.3866 13.97092700533960
UNKNOWN                 
1 81264U          24156.63104692  .00039860  00000+0  47955-2 0  9997
2 81264  99.4112 284.5993 0070460 224.0580 135.5001 14.81994425  5790
UNKNOWN                 
1 81279U          24156.04717930  .00002914  00000+0  11732-2 0  9997
2 81279  98.1682 253.5700 0214647 211.7031 147.1072 14.16989817383666
UNKNOWN                 
1 81301U          24149.43322725  .00000303  00000+0  37409-3 0  9992
2 81301  66.7581 200.6929 0097620 251.2228 121.4534 13.76120169528834
UNKNOWN                 
1 81311U 90105    24155.92580043  .00001474  00000+0  31519-3 0  9994
2 81311  98.7991 179.0087 0135131  22.9669  94.3746 14.54928210558578
UNKNOWN                 
1 81317U 80089    24156.45176794  .00000173  00000+0  39932-3 0  9995
2 81317  67.1377 321.0891 0206768  62.4674 328.1533 13.37583796514226
UNKNOWN                 
1 81323U          24156.17843468  .00009969  00000+0  16493-2 0  9993
2 81323  65.7572 118.5698 0436498 249.4495 105.9253 14.22990964 33164
UNKNOWN                 
1 81341U          24131.45791894  .00003940  00000+0  10192-1 0  9994
2 81341  99.5158 143.6557 0405904  29.3275 332.9965 12.92192804448187
UNKNOWN                 
1 81342U          24155.37784089  .00008384  00000+0  40952-2 0  9995
2 81342  70.8956  54.7742 0145053 128.7300 232.6892 14.12863832538920
UNKNOWN                 
1 81343U          24156.37462550  .00007673  00000+0  73415-3 0  9994
2 81343  85.8765 134.4460 0012654  99.2939 260.9720 14.93020376370989
UNKNOWN                 
1 81357U          24156.57431016  .00098031  00000+0  30676-2 0  9993
2 81357  97.3721  14.7628 0082902  74.9074 286.1319 15.29395789453320
UNKNOWN                 
1 81359U          24155.39116545  .00000803  00000+0  83993-3 0  9992
2 81359  66.8004 304.2881 0119729 341.2899  18.3789 13.77124430528680
UNKNOWN                 
1 81366U          24150.83499719  .00000829  00000+0  31546-3 0  9996
2 81366  65.8837 319.3567 0733248 351.0127   7.8357 13.42090867990708
UNKNOWN                 
1 81371U          24155.58868461  .00003523  00000+0  66204-3 0  9996
2 81371  98.8603 203.0750 0077984 290.9806  68.3062 14.63454925560146
UNKNOWN                 
1 81386U          24156.60538330  .00006434  00000+0  26012-2 0  9991
2 81386  71.0516 113.3254 0110762 238.4296 120.5982 14.24869172544664
UNKNOWN                 
1 81390U          24146.79466437  .00000418  00000+0  35216-2 0  9995
2 81390 103.1313 351.5443 0179695  54.8614 306.9137 12.35389327430194
UNKNOWN                 
1 81392U          24156.28489885  .00005747  00000+0  60318-2 0  9995
2 81392 100.4317  84.7325 0050988  12.6252 139.5425 13.74814520525497
UNKNOWN                 
1 81402U          24156.58606055  .00038356  00000+0  89795-2 0  9992
2 81402  98.6900 204.6043 0005232 195.8235 164.2797 14.54405201366752
UNKNOWN                 
1 81406U          24148.27524141  .00002352  00000+0  97867-3 0  9995
2 81406  65.8117 341.2127 0880830 210.6341 144.0331 13.08352432459716
UNKNOWN                 
1 81409U 87068    24156.41357787  .00050791  00000+0  98478-2 0  9990
2 81409  82.6458 295.4219 0038626 276.4137  83.2669 14.62499306549752
UNKNOWN                 
1 81418U          24154.39818941  .00002055  00000+0  39352-2 0  9996
2 81418 100.2994 312.7052 0060079 190.0063 169.9870 13.38060642324507
UNKNOWN                 
1 81425U          24155.95323100  .00006313  00000+0  67533-2 0  9998
2 81425  99.4727 240.6003 0079214 104.4948 256.5005 13.72767800365679
UNKNOWN                 
1 81427U          24147.96184108  .00000867  00000+0  54517-3 0  9992
2 81427  98.8108  41.1759 0085931 184.3599 175.6830 14.05139850472391
UNKNOWN                 
1 81438U          24141.52251922  .00004253  00000+0  66589-2 0  9993
2 81438 100.2961 345.9460 0054734  31.4222 329.0161 13.50344175514716
UNKNOWN                 
1 81439U          24154.33789743  .00000272  00000+0  89985-3 0  9997
2 81439  67.1584 141.1305 0603847 188.1780 170.9036 12.62016601191411
UNKNOWN                 
1 81449U 85042    24156.49090314  .00017967  00000+0  43103-2 0  9995
2 81449  66.8034 106.0835 0046156 229.1851 130.5253 14.52850169551605
UNKNOWN                 
1 81478U          24155.50759437  .00004063  00000+0  16725-2 0  9990
2 81478  98.9808  49.6519 0160588 164.8525 321.5657 14.20713622543587
UNKNOWN                 
1 81488U 75052    24156.47469049  .00000338  00000+0  54740-3 0  9995
2 81488 100.0768  12.9684 0043409 299.3829 178.3540 13.56020350521220
UNKNOWN                 
1 81497U          24155.35979375  .00006556  00000+0  67496-2 0  9999
2 81497 100.3365 353.4390 0030805   3.7773 120.0088 13.76240995139377
UNKNOWN                 
1 81499U          24156.35484439  .00004027  00000+0  12523-2 0  9996
2 81499  74.0514 175.9736 0003490 321.0435  39.0469 14.41308837402079
UNKNOWN                 
1 81535U          24156.59763036  .00001116  00000+0  49529-3 0  9999
2 81535  98.1881 279.3296 0242486 315.0795  43.0980 14.10429147308900
UNKNOWN                 
1 81536U 73086    24148.34443596  .00000653  00000+0  43056-2 0  9997
2 81536 102.0147 356.1390 0016996 290.0250 246.2399 12.54973205480988
UNKNOWN                 
1 81537U 93016    24150.44961845  .00000359  00000+0  23899-3 0  9996
2 81537  71.0390 191.9357 0080234 279.1031  80.1015 14.06358219541386
UNKNOWN                 
1 81552U          24148.95088094  .00000833  00000+0  19068-2 0  9992
2 81552  99.0190 148.8871 0258589 290.1731  67.1747 13.16912440505001
UNKNOWN                 
1 81569U          24154.99734757  .00000383  00000+0  18027-2 0  9999
2 81569  28.0742  31.4483 0315815 162.8120 198.3362 12.46360812483189
UNKNOWN                 
1 81579U          24155.68141204  .00062181  00000+0  18849-1 0  9991
2 81579 100.1174 247.9126 0143638 215.2349 143.9271 14.36075084533936
UNKNOWN                 
1 81599U          24156.13176250  .00000397  00000+0  82402-3 0  9992
2 81599  67.2981  44.0587 0247272 124.9279  25.7705 13.30308073511004
UNKNOWN                 
1 81605U          24156.27813202  .00003448  00000+0  14902-1 0  9998
2 81605  56.4412 347.3489 0153765 118.4698 243.1813 12.79638893114921
UNKNOWN                 
1 81614U 76077    24156.48609196  .00007847  00000+0  47626-1 0  9999
2 81614 101.7982 167.2570 0460875  97.2491 268.1178 12.29323114469392
UNKNOWN                 
1 81615U 92021    24156.41856944  .00002100  00000+0  78279-3 0  9992
2 81615  65.8296 274.2348 0796785  31.9226 332.7626 13.28493134508789
UNKNOWN                 
1 81617U 73086    24152.82888045  .00000490  00000+0  31898-2 0  9997
2 81617 101.2578 346.2364 0035641 265.6293  94.0710 12.56911236482741
UNKNOWN                 
1 81624U          24152.99940838  .00004706  00000+0  95886-3 0  9990
2 81624  66.9853 260.5598 0084643 334.8558  24.8446 14.59613249557678
UNKNOWN                 
1 81640U          24153.54159902  .00000397  00000+0  39902-3 0  9993
2 81640  65.8236 194.6589 0995742 304.1391  46.9002 12.56320683439801
UNKNOWN                 
1 81652U 76077    24156.28814491  .00002042  00000+0  24322-2 0  9996
2 81652 102.1547 283.2047 0374181 162.2293 231.7124 13.42922815503914
UNKNOWN                 
1 81667U          24155.26178126  .00003908  00000+0  11917-2 0  9998
2 81667  74.0445 355.5401 0017416  74.9957 285.3125 14.42195816376099
UNKNOWN                 
1 81674U          24153.90627993  .00001646  00000+0  10165-2 0  9997
2 81674  66.8251 329.0326 0036053 271.1047 237.9561 14.07536689534992
UNKNOWN                 
1 81683U          24156.42012917  .00004774  00000+0  12278-2 0  9993
2 81683  81.2177 158.8886 0028158 186.3588 173.7252 14.49830005555018
UNKNOWN                 
1 81693U 73086    24153.60603925 -.00000410  00000+0 -27142-2 0  9991
2 81693 101.0807 271.6288 0375552  60.5525 303.2463 12.24657735899289
UNKNOWN                 
1 81696U          24155.95762638  .00090040  00000+0  26526-2 0  9998
2 81696  97.3849  45.9285 0080072 271.4750  87.7320 15.31520474430734
UNKNOWN                 
1 81745U          24156.28604243  .00004081  00000+0  14514-2 0  9991
2 81745  71.0012 160.8180 0006254 327.0774  32.9969 14.34904869549755
UNKNOWN                 
1 81749U          24153.54965491 -.00000035  00000+0  57222-5 0  9998
2 81749  99.7318 255.9942 0366122 353.0779  71.3602 12.77309488490605
